#dP2023  7 23 18  0  0.00000000      96 __u+U ITR00 EXT  IAC
## 2272  64800.00000000   900.00000000 60148 0.7500000000000
+  118   C06C07C08C09C10C11C12C13C14C16C19C20C21C22C23C24C25
+        C26C27C28C29C30C32C33C34C35C36C37C38C39C40C41C42C43
+        C44C45C46E02E03E04E05E07E08E09E10E11E12E13E14E15E18
+        E19E21E24E25E26E27E30E31E34E36G01G02G03G04G05G06G07
+        G08G09G10G11G12G13G14G15G16G17G18G19G20G21G22G23G24
+        G25G26G27G28G29G30G31G32J02J03J04R01R02R03R04R05R07
+        R08R09R11R12R13R14R15R16R17R18R19R20R21R22R24R25  0
++        11 10  9 11  9  9  9  7  8 11  7  8  7  9  9  7 10
++         8  7  9  7  6  9  8  8  9  8  8  7 11  9  9  9  8
++         9  8  9  7  6  8  7  8  8  7  7  7  8  6  8  7  7
++         6  7  7  8  8  6  6  6  8  7  8  7  7  7  6  8  9
++         7  6  6  8  7  7  7  8  6  8  6  6  6  7  7  6  6
++         8  6  6  7  9  7  8  7 10 11  9 10  8  9 10  7  8
++         7  7  7  6  8  8  7  7  6  7  9 10  8  8  7  8  0
%c M  cc GPS ccc cccc cccc cccc cccc ccccc ccccc ccccc ccccc
%c cc cc ccc ccc cccc cccc cccc cccc ccccc ccccc ccccc ccccc
%f  0.0000000  0.000000000  0.00000000000  0.000000000000000
%f  0.0000000  0.000000000  0.00000000000  0.000000000000000
%i    0    0    0    0      0      0      0      0         0
%i    0    0    0    0      0      0      0      0         0
/* IAC                                ULTRA-RAPID PREDICTION
/* S/V CLOCKS ARE ALIGNED TO GNSS TIME                      
/* G:C1WC2W R:C1PC2P E:C1XC5X C:C2IC6I J:C1CC2S             
/* PCV:IGS20_2247 OL/AL:FES2004  NONE     YN ORB:CoN CLK:CoN
*  2023 07 24 13 45  0.00000000
PC06  -6479.409618  24026.291102  34087.505705    701.049495
PC07 -16724.995710  35112.989007 -16442.094157   -371.948208
PC08  -3133.420985  39102.373115 -15184.165626    416.659784
PC09   4110.350852  27734.539198  32075.105961    377.648707
PC10 -11414.427504  35085.046226 -20557.728991   -124.126075
PC11  27464.043763   3625.618830   3304.193183    742.923836
PC12  19695.871257  13613.285499 -14289.293030    813.768516
PC13   1500.052316  41046.963658  -8690.448000    321.497231
PC14  20459.675070  -4954.422326  18299.047601    110.618895
PC16  -7493.743144  23148.877977  34696.651757     -6.829360
PC19 -21521.598128  13811.493447 -11185.001882   -945.686291
PC20 -17074.070217  -2795.323205 -21896.674684    412.805502
PC21   1820.130902  19167.368913  20220.181614   -939.109188
PC22 -13875.536439  23334.676413   6521.449083   -382.075325
PC23   5158.212464 -21608.013977 -16877.532597   -931.050333
PC24  17278.230588  15986.407491 -14975.008350    208.028641
PC25  15419.076264  -5338.569480 -22643.263724    174.696881
PC26   9824.875893  26096.688318    396.193793   -153.305215
PC27 -11765.069561 -16061.864761  19528.403863    174.273219
PC28   7782.483935 -14504.428017  22534.343060    130.036626
PC29 -24944.407067   4546.823756 -11669.443552    151.555575
PC30 -25840.793664  -8352.522598   6376.384422     -2.596500
PC32  -1909.028605 -19187.913690 -20156.196085   -536.669256
PC33  21443.732198 -13808.668598  11298.765973   -920.519649
PC34  26375.902713   7593.446154  -5100.949885    221.830506
PC35  -7656.042387  14759.272209 -22422.716805    582.071093
PC36 -15852.061881   4089.064538  22629.107575   -312.473228
PC37  -8608.590934 -26523.706670  -1330.877965   -797.106299
PC38  -8159.085852  35257.606449 -21460.570381     93.653357
PC39 -13938.790566  20306.786342  34240.863509     -3.975653
PC40 -24756.635346  30585.195342 -15475.635268    -30.506164
PC41  14272.160110 -23251.442777  -5788.920036   -897.869792
PC42  16257.691123   4283.696256  22306.125226   -601.125393
PC43  25395.218184  -3964.266085  10875.095727     32.147999
PC44  12153.055071  15786.445871 -19567.062189    178.558717
PC45  -4750.782495  21900.386358  16623.821565     -5.696019
PC46 -17448.491720 -14800.773708  16006.304868    -71.292768
PE02  -2109.099497  28860.550147  -6198.010781     51.610252
PE03  -1396.315953  17817.544236  23596.275912    -39.140313
PE04 -19084.252780  -9122.298780 -20700.999556   -173.827859
PE05 -21279.205546  16182.860266  12718.770046      2.558074
PE07  28599.219821  -4844.554739   5869.507661    -62.286657
PE08  18701.481344   9244.851031  20994.157543   -119.419932
PE09 -28585.122637   4820.469289  -6029.931622    -95.861853
PE10 -24429.106939 -13737.099143  -9552.321131   -550.897334
PE11 -22861.673665  -4856.691411 -18176.820494   2563.918929
PE12 -22032.629291 -19756.256410   -265.790692   -630.737087
PE13  23081.026825   5546.923926  17678.773955    -19.350062
PE14 -30162.453493   4657.887849   2614.469984    291.370250
PE15  21902.396790  19911.346458   -130.597189    -39.614011
PE18  23487.707306   3972.287885 -10433.951182    332.978602
PE19   4409.517295 -18100.269715 -22994.242824  -2005.129329
PE21  13340.025722 -23798.492453 -11475.602599   -542.588188
PE24 -17520.196461   3823.965846  23538.614325   -227.221920
PE25 -13510.669961  23553.029151  11795.331761   -608.791789
PE26  10205.795013 -12563.417674  24778.547276    172.383893
PE27  17506.844411  -4664.378636 -23401.081883   -107.171059
PE30  11049.437517  17497.042261 -21164.718465   -361.577506
PE31 -11326.528395 -17008.255452  21426.512047     -1.098774
PE34   7956.124809  22416.202008 -17621.817679    -57.798643
PE36 -10736.512240  11873.312564 -24903.622010    -90.693304
PG01  21324.009406  13754.110695   8072.922555    171.495856
PG02  21572.368785  15535.848231   2281.065138   -572.876959
PG03  13736.653787   5624.945624  21888.642415   -218.867384
PG04  24216.527004   1708.140620  10921.380994    105.000858
PG05  -6768.197024 -20614.988660 -15426.444758   -136.123437
PG06   2658.863502 -16455.820523  20713.253728    574.708115
PG07  18604.917784   -593.027273 -18655.240835    115.854048
PG08  16595.512148   8729.173140 -19034.873557   -133.801122
PG09  25665.654025  -6613.863811   1972.837068   -104.296760
PG10 -10991.952277  22602.703471  -7893.337079    -46.457509
PG11 -10289.695801 -21940.777257  10928.973237   -289.836433
PG12 -12045.759464 -10243.984059  21075.913581   -404.563232
PG13  -8058.396616 -13706.672948 -21492.690397    551.272578
PG14  13482.488368 -20204.295330 -10532.568020    132.370296
PG15 -18041.363995  -7078.570486 -18738.216048     61.030076
PG16   1462.491612  23157.013516 -12804.557206   -476.984181
PG17  18308.736556 -13803.727816  13924.930311    721.577437
PG18 -16531.460638   3268.267313 -20573.049077   -357.382548
PG19  11424.401416 -14827.752394  18495.672076    348.212439
PG20  -2090.349235 -25990.152237  -5522.574233    420.956802
PG21  20879.538921  17165.555133   -393.391067    151.756771
PG22  -7457.903848  15917.237523  20319.591172    517.326562
PG23 -15061.736937  12654.218325 -17762.204049     46.838711
PG24 -22002.924576 -14943.695219   2825.348967   -268.068647
PG25 -15942.364213   4534.539586  20384.890200    458.056643
PG26  -3801.428565  26082.001992   -958.772300    235.443019
PG27   4345.485744  14561.947060 -22034.064763     -9.288445
PG28  -4256.125675  15788.370915  20910.611288     81.114669
PG29 -26222.228874   3485.899077   2892.734409   -606.303941
PG30  11930.719339 -10286.166873 -21272.567552   -501.903011
PG31   5594.645304  20782.367721  15101.131969   -220.631962
PG32 -14869.986717  15732.869582  15437.614060   -527.447366
PJ02 -31252.757085  25277.435019  17914.090649     -1.717291
PJ03 -26257.058409  17034.830678 -23664.323558     -0.316360
PJ04 -23643.337421  34988.875556   1743.993885     97.470832
PR01  -2255.035013 -12141.695818 -22318.191554     62.045631
PR02 -16331.549714   1484.144385 -19471.597112    -22.600046
PR03 -20719.049839  13869.267190  -5202.040797     82.065311
PR04 -13761.378038  18080.525266  11607.323816    196.041952
PR05    703.829093  12636.567455  22152.092661    116.267773
PR07  20710.232291 -14254.836833   4495.587015     60.882558
PR08  13558.906828 -18197.524196 -11622.157797    -71.792753
PR09  12094.823379  10450.184279 -19883.983026    132.929612
PR11   2203.719045 -21930.083278 -12809.795249   -112.849628
PR12  -7072.411536 -23758.606319   6071.887587     29.435256
PR13 -11583.672309 -12527.361273  18953.553237    -37.419135
PR14  -9438.821172   8413.943369  22175.093837     25.002767
PR15  -1830.414307  22609.226776  11702.661319     87.582029
PR16   7047.289260  23858.639433  -5708.778571     17.002555
PR17 -19282.769040    787.619892 -16703.806766      2.652925
PR18  -4551.063615   9446.345510 -23243.026663     93.206430
PR19  10691.573108  13617.469674 -18734.049426   -240.954926
PR20  23412.716778  10167.236449   -259.565849    -97.116155
PR21  18409.864776  -1341.374433  17582.519826    -25.117088
PR22   4073.529927 -10093.455388  23091.132183    100.827682
PR24 -23856.080753  -9057.932920   -345.102251    -17.798275
PR25  19384.224878   -113.467292  16567.238682     45.904301
EOF
